NOAA 15                 
1 25338U 98030A   21015.82784471  .00000023  00000-0  28263-4 0  9991
2 25338  98.6986  45.5898 0010488  10.9185 349.2220 14.26008752179490
NOAA 18                 
1 28654U 05018A   21015.80515802  .00000106  00000-0  81753-4 0  9992
2 28654  99.0164  79.9174 0014021 356.7239   3.3838 14.12573224806983
NOAA 19                 
1 33591U 09005A   21015.68347528  .00000025  00000-0  38751-4 0  9992
2 33591  99.1927  32.5273 0013677 197.4363 162.6340 14.12448586615354
METEOR-M 2              
1 40069U 14037A   21015.81630690 -.00000010  00000-0  14824-4 0  9991
2 40069  98.4790  51.0542 0006338  35.4480 324.7110 14.20680053338369
